{"fetched_at":"2026-07-24T07:06:33.741Z","source":"https://celestrak.org/NORAD/elements/gp.php?NAME=HULIANWANG&FORMAT=JSON","constellation":"guowang","records":[{"OBJECT_NAME":"HULIANWANG DIGUI-156","OBJECT_ID":"2026-047B","EPOCH":"2026-07-23T14:35:01.358304","CLASSIFICATION_TYPE":"U","MEAN_MOTION":13.29326616,"ECCENTRICITY":0.0000936,"INCLINATION":50.0037,"RA_OF_ASC_NODE":285.6907,"ARG_OF_PERICENTER":232.2744,"MEAN_ANOMALY":127.8043,"EPHEMERIS_TYPE":0,"NORAD_CAT_ID":68130,"ELEMENT_SET_NO":999,"REV_AT_EPOCH":1790,"BSTAR":0.000067668,"MEAN_MOTION_DOT":-9.3e-7,"MEAN_MOTION_DDOT":0},{"OBJECT_NAME":"HULIANWANG DIGUI-157","OBJECT_ID":"2026-047C","EPOCH":"2026-07-23T14:23:01.304160","CLASSIFICATION_TYPE":"U","MEAN_MOTION":13.29325945,"ECCENTRICITY":0.0000963,"INCLINATION":50.0006,"RA_OF_ASC_NODE":285.6163,"ARG_OF_PERICENTER":230.3216,"MEAN_ANOMALY":129.7572,"EPHEMERIS_TYPE":0,"NORAD_CAT_ID":68131,"ELEMENT_SET_NO":999,"REV_AT_EPOCH":1791,"BSTAR":0.000072369,"MEAN_MOTION_DOT":-9e-7,"MEAN_MOTION_DDOT":0},{"OBJECT_NAME":"HULIANWANG DIGUI-158","OBJECT_ID":"2026-047D","EPOCH":"2026-07-23T14:10:57.729216","CLASSIFICATION_TYPE":"U","MEAN_MOTION":13.2932471,"ECCENTRICITY":0.0001037,"INCLINATION":50.0053,"RA_OF_ASC_NODE":285.6238,"ARG_OF_PERICENTER":228.1686,"MEAN_ANOMALY":131.9097,"EPHEMERIS_TYPE":0,"NORAD_CAT_ID":68132,"ELEMENT_SET_NO":999,"REV_AT_EPOCH":1790,"BSTAR":0.000078606,"MEAN_MOTION_DOT":-8.8e-7,"MEAN_MOTION_DDOT":0},{"OBJECT_NAME":"HULIANWANG DIGUI-159","OBJECT_ID":"2026-047E","EPOCH":"2026-07-23T15:47:12.020064","CLASSIFICATION_TYPE":"U","MEAN_MOTION":13.29326541,"ECCENTRICITY":0.0001111,"INCLINATION":50.0022,"RA_OF_ASC_NODE":285.2766,"ARG_OF_PERICENTER":222.8938,"MEAN_ANOMALY":137.1848,"EPHEMERIS_TYPE":0,"NORAD_CAT_ID":68133,"ELEMENT_SET_NO":999,"REV_AT_EPOCH":1792,"BSTAR":0.000079814,"MEAN_MOTION_DOT":-8.7e-7,"MEAN_MOTION_DDOT":0},{"OBJECT_NAME":"HULIANWANG DIGUI-160","OBJECT_ID":"2026-047F","EPOCH":"2026-07-23T13:34:46.257024","CLASSIFICATION_TYPE":"U","MEAN_MOTION":13.29326315,"ECCENTRICITY":0.0001144,"INCLINATION":50.008,"RA_OF_ASC_NODE":285.5233,"ARG_OF_PERICENTER":213.5577,"MEAN_ANOMALY":146.5223,"EPHEMERIS_TYPE":0,"NORAD_CAT_ID":68134,"ELEMENT_SET_NO":999,"REV_AT_EPOCH":1790,"BSTAR":0.000075148,"MEAN_MOTION_DOT":-8.9e-7,"MEAN_MOTION_DDOT":0},{"OBJECT_NAME":"HULIANWANG DIGUI-161","OBJECT_ID":"2026-047G","EPOCH":"2026-07-23T15:35:03.986016","CLASSIFICATION_TYPE":"U","MEAN_MOTION":13.29325376,"ECCENTRICITY":0.0001009,"INCLINATION":50.0098,"RA_OF_ASC_NODE":285.3189,"ARG_OF_PERICENTER":224.9584,"MEAN_ANOMALY":135.1207,"EPHEMERIS_TYPE":0,"NORAD_CAT_ID":68135,"ELEMENT_SET_NO":999,"REV_AT_EPOCH":1792,"BSTAR":0.000081812,"MEAN_MOTION_DOT":-8.6e-7,"MEAN_MOTION_DDOT":0},{"OBJECT_NAME":"HULIANWANG DIGUI-162","OBJECT_ID":"2026-047H","EPOCH":"2026-07-23T06:10:03.338976","CLASSIFICATION_TYPE":"U","MEAN_MOTION":13.29324774,"ECCENTRICITY":0.0000976,"INCLINATION":50.0071,"RA_OF_ASC_NODE":286.5493,"ARG_OF_PERICENTER":232.8069,"MEAN_ANOMALY":127.2714,"EPHEMERIS_TYPE":0,"NORAD_CAT_ID":68136,"ELEMENT_SET_NO":999,"REV_AT_EPOCH":1786,"BSTAR":0.00008467,"MEAN_MOTION_DOT":-8.5e-7,"MEAN_MOTION_DDOT":0},{"OBJECT_NAME":"HULIANWANG DIGUI-163","OBJECT_ID":"2026-047J","EPOCH":"2026-07-23T14:59:00.897216","CLASSIFICATION_TYPE":"U","MEAN_MOTION":13.29326131,"ECCENTRICITY":0.0000932,"INCLINATION":50.0072,"RA_OF_ASC_NODE":285.1599,"ARG_OF_PERICENTER":232.0943,"MEAN_ANOMALY":127.9845,"EPHEMERIS_TYPE":0,"NORAD_CAT_ID":68137,"ELEMENT_SET_NO":999,"REV_AT_EPOCH":1792,"BSTAR":0.000075621,"MEAN_MOTION_DOT":-8.9e-7,"MEAN_MOTION_DDOT":0},{"OBJECT_NAME":"HULIANWANG DIGUI-164","OBJECT_ID":"2026-076A","EPOCH":"2026-07-23T20:14:05.623296","CLASSIFICATION_TYPE":"U","MEAN_MOTION":13.24410423,"ECCENTRICITY":0.0001873,"INCLINATION":86.4948,"RA_OF_ASC_NODE":31.4957,"ARG_OF_PERICENTER":79.1568,"MEAN_ANOMALY":280.9777,"EPHEMERIS_TYPE":0,"NORAD_CAT_ID":68656,"ELEMENT_SET_NO":999,"REV_AT_EPOCH":1422,"BSTAR":0.000045757,"MEAN_MOTION_DOT":3.4e-7,"MEAN_MOTION_DDOT":0},{"OBJECT_NAME":"HULIANWANG DIGUI-165","OBJECT_ID":"2026-076B","EPOCH":"2026-07-23T20:03:12.460032","CLASSIFICATION_TYPE":"U","MEAN_MOTION":13.24413165,"ECCENTRICITY":0.0002071,"INCLINATION":86.4965,"RA_OF_ASC_NODE":31.5168,"ARG_OF_PERICENTER":82.155,"MEAN_ANOMALY":277.9819,"EPHEMERIS_TYPE":0,"NORAD_CAT_ID":68657,"ELEMENT_SET_NO":999,"REV_AT_EPOCH":1422,"BSTAR":-0.000019756,"MEAN_MOTION_DOT":6e-8,"MEAN_MOTION_DDOT":0},{"OBJECT_NAME":"HULIANWANG DIGUI-166","OBJECT_ID":"2026-076C","EPOCH":"2026-07-23T19:52:26.004000","CLASSIFICATION_TYPE":"U","MEAN_MOTION":13.2441121,"ECCENTRICITY":0.0002045,"INCLINATION":86.4907,"RA_OF_ASC_NODE":31.4459,"ARG_OF_PERICENTER":82.4057,"MEAN_ANOMALY":277.7309,"EPHEMERIS_TYPE":0,"NORAD_CAT_ID":68658,"ELEMENT_SET_NO":999,"REV_AT_EPOCH":1422,"BSTAR":-0.000052222,"MEAN_MOTION_DOT":-8e-8,"MEAN_MOTION_DDOT":0},{"OBJECT_NAME":"HULIANWANG DIGUI-167","OBJECT_ID":"2026-076D","EPOCH":"2026-07-23T19:41:26.501568","CLASSIFICATION_TYPE":"U","MEAN_MOTION":13.24413238,"ECCENTRICITY":0.0002029,"INCLINATION":86.4961,"RA_OF_ASC_NODE":31.5063,"ARG_OF_PERICENTER":82.5304,"MEAN_ANOMALY":277.606,"EPHEMERIS_TYPE":0,"NORAD_CAT_ID":68659,"ELEMENT_SET_NO":999,"REV_AT_EPOCH":1422,"BSTAR":-0.000053097,"MEAN_MOTION_DOT":-8e-8,"MEAN_MOTION_DDOT":0},{"OBJECT_NAME":"HULIANWANG DIGUI-168","OBJECT_ID":"2026-076E","EPOCH":"2026-07-23T19:30:35.158752","CLASSIFICATION_TYPE":"U","MEAN_MOTION":13.24411141,"ECCENTRICITY":0.0002049,"INCLINATION":86.4943,"RA_OF_ASC_NODE":31.4805,"ARG_OF_PERICENTER":82.2052,"MEAN_ANOMALY":277.9315,"EPHEMERIS_TYPE":0,"NORAD_CAT_ID":68660,"ELEMENT_SET_NO":999,"REV_AT_EPOCH":1421,"BSTAR":-0.000060257,"MEAN_MOTION_DOT":-1.1e-7,"MEAN_MOTION_DDOT":0}]}
