HULIANWANG DIGUI-156    
1 68130U 26047B   26204.60765461 -.00000093  00000+0  67668-4 0  9995
2 68130  50.0037 285.6907 0000936 232.2744 127.8043 13.29326616 17905
HULIANWANG DIGUI-157    
1 68131U 26047C   26204.59932065 -.00000090  00000+0  72369-4 0  9991
2 68131  50.0006 285.6163 0000963 230.3216 129.7572 13.29325945 17912
HULIANWANG DIGUI-158    
1 68132U 26047D   26204.59094594 -.00000088  00000+0  78606-4 0  9995
2 68132  50.0053 285.6238 0001037 228.1686 131.9097 13.29324710 17902
HULIANWANG DIGUI-159    
1 68133U 26047E   26204.65777801 -.00000087  00000+0  79814-4 0  9993
2 68133  50.0022 285.2766 0001111 222.8938 137.1848 13.29326541 17923
HULIANWANG DIGUI-160    
1 68134U 26047F   26204.56581316 -.00000089  00000+0  75148-4 0  9996
2 68134  50.0080 285.5233 0001144 213.5577 146.5223 13.29326315 17900
HULIANWANG DIGUI-161    
1 68135U 26047G   26204.64935169 -.00000086  00000+0  81812-4 0  9997
2 68135  50.0098 285.3189 0001009 224.9584 135.1207 13.29325376 17926
HULIANWANG DIGUI-162    
1 68136U 26047H   26204.25698309 -.00000085  00000+0  84670-4 0  9991
2 68136  50.0071 286.5493 0000976 232.8069 127.2714 13.29324774 17866
HULIANWANG DIGUI-163    
1 68137U 26047J   26204.62431594 -.00000089  00000+0  75621-4 0  9994
2 68137  50.0072 285.1599 0000932 232.0943 127.9845 13.29326131 17923
HULIANWANG DIGUI-164    
1 68656U 26076A   26204.84312064  .00000034  00000+0  45757-4 0  9992
2 68656  86.4948  31.4957 0001873  79.1568 280.9777 13.24410423 14229
HULIANWANG DIGUI-165    
1 68657U 26076B   26204.83556088  .00000006  00000+0 -19756-4 0  9998
2 68657  86.4965  31.5168 0002071  82.1550 277.9819 13.24413165 14229
HULIANWANG DIGUI-166    
1 68658U 26076C   26204.82807875 -.00000008  00000+0 -52222-4 0  9999
2 68658  86.4907  31.4459 0002045  82.4057 277.7309 13.24411210 14225
HULIANWANG DIGUI-167    
1 68659U 26076D   26204.82044562 -.00000008  00000+0 -53097-4 0  9997
2 68659  86.4961  31.5063 0002029  82.5304 277.6060 13.24413238 14221
HULIANWANG DIGUI-168    
1 68660U 26076E   26204.81290693 -.00000011  00000+0 -60257-4 0  9996
2 68660  86.4943  31.4805 0002049  82.2052 277.9315 13.24411141 14211
